PELICAN-1               
1 58296U 23174AS  26191.21846570  .00006951  00000+0  54185-4 0  9996
2 58296  97.4009 293.0009 0002521 190.7359 169.3851 15.72060428149785
PELICAN-2               
1 62631U 25009Y   26195.77914761 -.00000010  00000+0  17231-5 0  9999
2 62631  97.2070 286.3390 0002304 119.8367 240.3109 15.40619008 83802
PELICAN-3               
1 65315U 25188A   26195.77625957  .00004772  00000+0  11653-3 0  9993
2 65315  97.1983 271.5173 0002062 112.3721 247.7745 15.41322852 49565
PELICAN-4               
1 65316U 25188B   26194.17134176  .00005009  00000+0  12508-3 0  9999
2 65316  97.1994 270.0881 0001364  72.2617 287.8779 15.40614656 49310
PELICAN-5               
1 66667U 25276B   26195.91328093  .00002985  00000+0  97446-4 0  9998
2 66667  97.4117 270.8852 0001494  29.4790 330.6536 15.32561678 34763
PELICAN-6               
1 66703U 25276AP  26195.45564962  .00008380  00000+0  27948-3 0  9999
2 66703  97.3741 270.4386 0003116  39.3159 320.8308 15.31323409 34705
PELICAN-7               
1 69017U 26100AP  26195.66892442  .00000627  00000+0  29119-4 0  9996
2 69017  97.3863  93.1242 0003103  89.2047 270.9546 15.23602267 10995
PELICAN-9               
1 69019U 26100AR  26195.64550802  .00001159  00000+0  53115-4 0  9991
2 69019  97.3677  92.9304 0000255 356.4900   3.6335 15.22416343 10981
